$$SOE
2460721.500000000, A.D. 2025-Feb-15 00:00:00.0000, 3.761076249762107E+08, 1.702284727462359E+08, -2.550283641844594E+07,
2460728.500000000, A.D. 2025-Feb-22 00:00:00.0000, 3.703157660149404E+08, 1.795346586210091E+08, -2.792412584313333E+07,
2460735.500000000, A.D. 2025-Mar-01 00:00:00.0000, 3.642677445510967E+08, 1.887166735282909E+08, -3.032609541404992E+07,
2460742.500000000, A.D. 2025-Mar-08 00:00:00.0000, 3.579656848000058E+08, 1.977671014533079E+08, -3.270691204028558E+07,
2460749.500000000, A.D. 2025-Mar-15 00:00:00.0000, 3.514119714384757E+08, 2.066785236696364E+08, -3.506473143631689E+07,
2460756.500000000, A.D. 2025-Mar-22 00:00:00.0000, 3.446092518087566E+08, 2.154435290518326E+08, -3.739770003779195E+07,
2460763.500000000, A.D. 2025-Mar-29 00:00:00.0000, 3.375604390767506E+08, 2.240547225615466E+08, -3.970395734321032E+07,
2460770.500000000, A.D. 2025-Apr-05 00:00:00.0000, 3.302687166307576E+08, 2.325047350279783E+08, -4.198163845318937E+07,
2460777.500000000, A.D. 2025-Apr-12 00:00:00.0000, 3.227375417547038E+08, 2.407862343081670E+08, -4.422887661932147E+07,
2460784.500000000, A.D. 2025-Apr-19 00:00:00.0000, 3.149706483505574E+08, 2.488919369249053E+08, -4.644380585401035E+07,
2460791.500000000, A.D. 2025-Apr-26 00:00:00.0000, 3.069720489445651E+08, 2.568146199547799E+08, -4.862456363859232E+07,
2460798.500000000, A.D. 2025-May-03 00:00:00.0000, 2.987460360548041E+08, 2.645471331574585E+08, -5.076929373351324E+07,
2460805.500000000, A.D. 2025-May-10 00:00:00.0000, 2.902971829136232E+08, 2.720824113233314E+08, -5.287614908646155E+07,
2460812.500000000, A.D. 2025-May-17 00:00:00.0000, 2.816303435482846E+08, 2.794134867636008E+08, -5.494329483824675E+07,
2460819.500000000, A.D. 2025-May-24 00:00:00.0000, 2.727506523625743E+08, 2.865335018504725E+08, -5.696891143908744E+07,
2460826.500000000, A.D. 2025-May-31 00:00:00.0000, 2.636635236093302E+08, 2.934357218772626E+08, -5.895119787989283E+07,
2460833.500000000, A.D. 2025-Jun-07 00:00:00.0000, 2.543746503275751E+08, 3.001135493962867E+08, -6.088837489384277E+07,
2460840.500000000, A.D. 2025-Jun-14 00:00:00.0000, 2.448900003530960E+08, 3.065605393168632E+08, -6.277868795412287E+07,
2460847.500000000, A.D. 2025-Jun-21 00:00:00.0000, 2.352158105981404E+08, 3.127704114451978E+08, -6.462041043534309E+07,
2460854.500000000, A.D. 2025-Jun-28 00:00:00.0000, 2.253585827167644E+08, 3.187370621799819E+08, -6.641184707082736E+07,
2460861.500000000, A.D. 2025-Jul-05 00:00:00.0000, 2.153250786278382E+08, 3.244545774621321E+08, -6.815133737764576E+07,
2460868.500000000, A.D. 2025-Jul-12 00:00:00.0000, 2.051223146959450E+08, 3.299172461151335E+08, -6.983725899212946E+07,
2460875.500000000, A.D. 2025-Jul-19 00:00:00.0000, 1.947575547568523E+08, 3.351195729427077E+08, -7.146803096640942E+07,
2460882.500000000, A.D. 2025-Jul-26 00:00:00.0000, 1.842383022002124E+08, 3.400562914680805E+08, -7.304211703584048E+07,
2460889.500000000, A.D. 2025-Aug-02 00:00:00.0000, 1.735722911830879E+08, 3.447223762766120E+08, -7.455802884731108E+07,
2460896.500000000, A.D. 2025-Aug-09 00:00:00.0000, 1.627674770116425E+08, 3.491130548867947E+08, -7.601432913734695E+07,
2460903.500000000, A.D. 2025-Aug-16 00:00:00.0000, 1.518320257875956E+08, 3.532238190255625E+08, -7.740963485744938E+07,
2460910.500000000, A.D. 2025-Aug-23 00:00:00.0000, 1.407743036370250E+08, 3.570504352633790E+08, -7.874262025682729E+07,
2460917.500000000, A.D. 2025-Aug-30 00:00:00.0000, 1.296028658805565E+08, 3.605889556628891E+08, -8.001201987862776E+07,
2460924.500000000, A.D. 2025-Sep-06 00:00:00.0000, 1.183264447616187E+08, 3.638357293808002E+08, -8.121663124128491E+07,
2460931.500000000, A.D. 2025-Sep-13 00:00:00.0000, 1.069539340968828E+08, 3.667874126807636E+08, -8.235531723646259E+07,
2460938.500000000, A.D. 2025-Sep-20 00:00:00.0000, 9.549437416087602E+07, 3.694409756666859E+08, -8.342700866388349E+07,
2460945.500000000, A.D. 2025-Sep-27 00:00:00.0000, 8.395693791528362E+07, 3.717937088085395E+08, -8.443070673609477E+07,
2460952.500000000, A.D. 2025-Oct-04 00:00:00.0000, 7.235091662391979E+07, 3.738432297576542E+08, -8.536548531328344E+07,
2460959.500000000, A.D. 2025-Oct-11 00:00:00.0000, 6.068570453957298E+07, 3.755874894690168E+08, -8.623049289979090E+07,
2460966.500000000, A.D. 2025-Oct-18 00:00:00.0000, 4.897078300945012E+07, 3.770247773214581E+08, -8.702495444037196E+07,
2460973.500000000, A.D. 2025-Oct-25 00:00:00.0000, 3.721570420441189E+07, 3.781537252169343E+08, -8.774817291849056E+07,
2460980.500000000, A.D. 2025-Nov-01 00:00:00.0000, 2.543007457917314E+07, 3.789733106501446E+08, -8.839953075046062E+07,
2460987.500000000, A.D. 2025-Nov-08 00:00:00.0000, 1.362353816753976E+07, 3.794828586988584E+08, -8.897849097394803E+07,
2460994.500000000, A.D. 2025-Nov-15 00:00:00.0000, 1.805759931407629E+06, 3.796820428644467E+08, -8.948459824342455E+07,
2461001.500000000, A.D. 2025-Nov-22 00:00:00.0000, -1.001359036223637E+07, 3.795708849775004E+08, -8.991747964746025E+07,
2461008.500000000, A.D. 2025-Nov-29 00:00:00.0000, -2.182485381718031E+07, 3.791497553059894E+08, -9.027684523928860E+07,
2461015.500000000, A.D. 2025-Dec-06 00:00:00.0000, -3.361839983929212E+07, 3.784193727375609E+08, -9.056248808237451E+07,
2461022.500000000, A.D. 2025-Dec-13 00:00:00.0000, -4.538464481662167E+07, 3.773808016738721E+08, -9.077428412396756E+07,
2461029.500000000, A.D. 2025-Dec-20 00:00:00.0000, -5.711406848849582E+07, 3.760354466783267E+08, -9.091219213408595E+07,
2461036.500000000, A.D. 2025-Dec-27 00:00:00.0000, -6.879722900874406E+07, 3.743850474968182E+08, -9.097625340434444E+07,
2461043.500000000, A.D. 2026-Jan-03 00:00:00.0000, -8.042477809419221E+07, 3.724316738649166E+08, -9.096659112657538E+07,
2461050.500000000, A.D. 2026-Jan-10 00:00:00.0000, -9.198747608613852E+07, 3.701777194552861E+08, -9.088340952055153E+07,
2461057.500000000, A.D. 2026-Jan-17 00:00:00.0000, -1.034762066345899E+08, 3.676258949123871E+08, -9.072699274528831E+07,
2461064.500000000, A.D. 2026-Jan-24 00:00:00.0000, -1.148819908740496E+08, 3.647792200410938E+08, -9.049770360679272E+07,
2461071.500000000, A.D. 2026-Jan-31 00:00:00.0000, -1.261960010184935E+08, 3.616410151904965E+08, -9.019598207432938E+07,
2461078.500000000, A.D. 2026-Feb-07 00:00:00.0000, -1.374095732693708E+08, 3.582148918281704E+08, -8.982234362624413E+07,
2461085.500000000, A.D. 2026-Feb-14 00:00:00.0000, -1.485142197433138E+08, 3.545047423452030E+08, -8.937737746146126E+07,
2461092.500000000, A.D. 2026-Feb-21 00:00:00.0000, -1.595016389968210E+08, 3.505147297268243E+08, -8.886174457740849E+07,
2461099.500000000, A.D. 2026-Feb-28 00:00:00.0000, -1.703637262031091E+08, 3.462492783026302E+08, -8.827617553416941E+07,
2461106.500000000, A.D. 2026-Mar-07 00:00:00.0000, -1.810925850128614E+08, 3.417130636881996E+08, -8.762146788923702E+07,
2461113.500000000, A.D. 2026-Mar-14 00:00:00.0000, -1.916805383001856E+08, 3.369109996422801E+08, -8.689848375917000E+07,
2461120.500000000, A.D. 2026-Mar-21 00:00:00.0000, -2.021201359990782E+08, 3.318482247947174E+08, -8.610814744723609E+07,
2461127.500000000, A.D. 2026-Mar-28 00:00:00.0000, -2.124041620331081E+08, 3.265300903362302E+08, -8.525144288418388E+07,
2461134.500000000, A.D. 2026-Apr-04 00:00:00.0000, -2.225256409371720E+08, 3.209621477645532E+08, -8.432941091985089E+07,
2461141.500000000, A.D. 2026-Apr-11 00:00:00.0000, -2.324778438980218E+08, 3.151501363840584E+08, -8.334314653338283E+07,
2461148.500000000, A.D. 2026-Apr-18 00:00:00.0000, -2.422542940603836E+08, 3.090999706080180E+08, -8.229379599068086E+07,
2461155.500000000, A.D. 2026-Apr-25 00:00:00.0000, -2.518487710632680E+08, 3.028177271328079E+08, -8.118255396560639E+07,
2461162.500000000, A.D. 2026-May-02 00:00:00.0000, -2.612553147897049E+08, 2.963096320071902E+08, -8.001066064337204E+07,
2461169.500000000, A.D. 2026-May-09 00:00:00.0000, -2.704682282219870E+08, 2.895820475806143E+08, -7.877939883535247E+07,
2461176.500000000, A.D. 2026-May-16 00:00:00.0000, -2.794820790435255E+08, 2.826414595153599E+08, -7.749009113981198E+07,
2461183.500000000, A.D. 2026-May-23 00:00:00.0000, -2.882916999577818E+08, 2.754944649267837E+08, -7.614409707971060E+07,
2461190.500000000, A.D. 2026-May-30 00:00:00.0000, -2.968921898301013E+08, 2.681477620097159E+08, -7.474281001087803E+07,
2461197.500000000, A.D. 2026-Jun-06 00:00:00.0000, -3.052789160001179E+08, 2.606081379143299E+08, -7.328765404933646E+07,
2461204.500000000, A.D. 2026-Jun-13 00:00:00.0000, -3.134475141295248E+08, 2.528824551022396E+08, -7.178008134653534E+07,
2461211.500000000, A.D. 2026-Jun-20 00:00:00.0000, -3.213938861226168E+08, 2.449776391374856E+08, -7.022156943698633E+07,
2461218.500000000, A.D. 2026-Jun-27 00:00:00.0000, -3.291141978568126E+08, 2.369006676031430E+08, -6.861361854122727E+07,
2461225.500000000, A.D. 2026-Jul-04 00:00:00.0000, -3.366048767589033E+08, 2.286585593965344E+08, -6.695774889613431E+07,
2461232.500000000, A.D. 2026-Jul-11 00:00:00.0000, -3.438626090075954E+08, 2.202583642931941E+08, -6.525549815301639E+07,
2461239.500000000, A.D. 2026-Jul-18 00:00:00.0000, -3.508843363047881E+08, 2.117071528228036E+08, -6.350841885515688E+07,
2461246.500000000, A.D. 2026-Jul-25 00:00:00.0000, -3.576672522268807E+08, 2.030120064738755E+08, -6.171807600142045E+07,
2461253.500000000, A.D. 2026-Aug-01 00:00:00.0000, -3.642087981438716E+08, 1.941800081901971E+08, -5.988604470826828E+07,
2461260.500000000, A.D. 2026-Aug-08 00:00:00.0000, -3.705066585268775E+08, 1.852182331315744E+08, -5.801390799617640E+07,
2461267.500000000, A.D. 2026-Aug-15 00:00:00.0000, -3.765587552638560E+08, 1.761337401549836E+08, -5.610325470438652E+07,
2461274.500000000, A.D. 2026-Aug-22 00:00:00.0000, -3.823632417790436E+08, 1.669335652404016E+08, -5.415567736653693E+07,
2461281.500000000, A.D. 2026-Aug-29 00:00:00.0000, -3.879184992803832E+08, 1.576247154900590E+08, -5.217276995158453E+07,
2461288.500000000, A.D. 2026-Sep-05 00:00:00.0000, -3.932231330345705E+08, 1.482141608343210E+08, -5.015612590162069E+07,
$$EOE